STARLINK-36746          
1 67733U 26026N   26071.62703232  .00066908  00000+0  12202-2 0  9990
2 67733  97.2854 125.9992 0001113  68.5702 291.5668 15.49219415  4567
STARLINK-36749          
1 67734U 26026P   26071.58335648 -.01827293  00000+0 -43563-1 0  9996
2 67734  97.2857 126.1162 0001654  80.7618  49.0560 15.44645075  5787
STARLINK-36691          
1 67735U 26026Q   26071.58335648 -.01790497  00000+0 -54267-1 0  9995
2 67735  97.2845 126.1888 0001870  90.7069 199.8651 15.37370464  5910
STARLINK-36317          
1 67736U 26026R   26071.58335648 -.01816583  00000+0 -54946-1 0  9995
2 67736  97.2846 126.1816 0001989  93.5721 181.6553 15.37479725  5785
STARLINK-36330          
1 67737U 26026S   26071.58335648 -.01753705  00000+0 -52313-1 0  9998
2 67737  97.2850 126.1938 0001688  93.8214 210.1456 15.37793452  5788
STARLINK-36327          
1 67738U 26026T   26071.58335648 -.01911569  00000+0 -57548-1 0  9998
2 67738  97.3008 126.1944 0001429 111.6326 207.5415 15.37803320  5789
STARLINK-36329          
1 67739U 26026U   26071.58335648 -.01903917  00000+0 -55388-1 0  9997
2 67739  97.3005 126.2311 0001271  82.1701 322.6840 15.38836761  5787
STARLINK-36737          
1 67740U 26026V   26071.58335648 -.01915088  00000+0 -57384-1 0  9999
2 67740  97.3006 126.2006 0001413 106.7869 226.8024 15.37953719  5788
STARLINK-36740          
1 67741U 26026W   26071.59467656 -.00234035  00000+0 -48926-2 0  9994
2 67741  97.2857 126.1973 0002445  72.9516 287.2002 15.46324206  4579
STARLINK-36693          
1 67742U 26026X   26071.58335648 -.01808577  00000+0 -43308-1 0  9996
2 67742  97.2857 126.1837 0001657  84.9298 202.8019 15.44483748  5918
STARLINK-36717          
1 67743U 26026Y   26071.58335648 -.01792485  00000+0 -49496-1 0  9991
2 67743  97.2858 126.2080 0001594 103.3877 232.1893 15.40215549  5914
STARLINK-36692          
1 67744U 26026Z   26071.58335648 -.01805095  00000+0 -46652-1 0  9995
2 67744  97.2848 126.1927 0001851  95.3566 212.8768 15.42220686  5785
