CCSDS_OMM_VERS = 2.0
CREATION_DATE  = 
ORIGINATOR     = 

OBJECT_NAME    = STARLINK-36746
OBJECT_ID      = 2026-026N
CENTER_NAME    = EARTH
REF_FRAME      = TEME
TIME_SYSTEM    = UTC
MEAN_ELEMENT_THEORY = SGP/SGP4

EPOCH          = 2026-03-12T15:02:55.592448
MEAN_MOTION    = 15.49219415
ECCENTRICITY   = .00011134
INCLINATION    = 97.2854
RA_OF_ASC_NODE = 125.9992
ARG_OF_PERICENTER = 68.5702
MEAN_ANOMALY   = 291.5668

EPHEMERIS_TYPE = 0
CLASSIFICATION_TYPE = U
NORAD_CAT_ID   = 67733
ELEMENT_SET_NO = 999
REV_AT_EPOCH   = 456
BSTAR          = .12201736E-2
MEAN_MOTION_DOT = .66908E-3
MEAN_MOTION_DDOT = 0

CCSDS_OMM_VERS = 2.0
CREATION_DATE  = 
ORIGINATOR     = 

OBJECT_NAME    = STARLINK-36749
OBJECT_ID      = 2026-026P
CENTER_NAME    = EARTH
REF_FRAME      = TEME
TIME_SYSTEM    = UTC
MEAN_ELEMENT_THEORY = SGP/SGP4

EPOCH          = 2026-03-12T14:00:01.999872
MEAN_MOTION    = 15.44645075
ECCENTRICITY   = .00016543
INCLINATION    = 97.2857
RA_OF_ASC_NODE = 126.1162
ARG_OF_PERICENTER = 80.7618
MEAN_ANOMALY   = 49.0560

EPHEMERIS_TYPE = 0
CLASSIFICATION_TYPE = U
NORAD_CAT_ID   = 67734
ELEMENT_SET_NO = 999
REV_AT_EPOCH   = 578
BSTAR          = -.43563341E-1
MEAN_MOTION_DOT = -.1827293E-1
MEAN_MOTION_DDOT = 0

CCSDS_OMM_VERS = 2.0
CREATION_DATE  = 
ORIGINATOR     = 

OBJECT_NAME    = STARLINK-36691
OBJECT_ID      = 2026-026Q
CENTER_NAME    = EARTH
REF_FRAME      = TEME
TIME_SYSTEM    = UTC
MEAN_ELEMENT_THEORY = SGP/SGP4

EPOCH          = 2026-03-12T14:00:01.999872
MEAN_MOTION    = 15.37370464
ECCENTRICITY   = .00018704
INCLINATION    = 97.2845
RA_OF_ASC_NODE = 126.1888
ARG_OF_PERICENTER = 90.7069
MEAN_ANOMALY   = 199.8651

EPHEMERIS_TYPE = 0
CLASSIFICATION_TYPE = U
NORAD_CAT_ID   = 67735
ELEMENT_SET_NO = 999
REV_AT_EPOCH   = 591
BSTAR          = -.54266806E-1
MEAN_MOTION_DOT = -.1790497E-1
MEAN_MOTION_DDOT = 0

CCSDS_OMM_VERS = 2.0
CREATION_DATE  = 
ORIGINATOR     = 

OBJECT_NAME    = STARLINK-36317
OBJECT_ID      = 2026-026R
CENTER_NAME    = EARTH
REF_FRAME      = TEME
TIME_SYSTEM    = UTC
MEAN_ELEMENT_THEORY = SGP/SGP4

EPOCH          = 2026-03-12T14:00:01.999872
MEAN_MOTION    = 15.37479725
ECCENTRICITY   = .00019892
INCLINATION    = 97.2846
RA_OF_ASC_NODE = 126.1816
ARG_OF_PERICENTER = 93.5721
MEAN_ANOMALY   = 181.6553

EPHEMERIS_TYPE = 0
CLASSIFICATION_TYPE = U
NORAD_CAT_ID   = 67736
ELEMENT_SET_NO = 999
REV_AT_EPOCH   = 578
BSTAR          = -.54945619E-1
MEAN_MOTION_DOT = -.1816583E-1
MEAN_MOTION_DDOT = 0

CCSDS_OMM_VERS = 2.0
CREATION_DATE  = 
ORIGINATOR     = 

OBJECT_NAME    = STARLINK-36330
OBJECT_ID      = 2026-026S
CENTER_NAME    = EARTH
REF_FRAME      = TEME
TIME_SYSTEM    = UTC
MEAN_ELEMENT_THEORY = SGP/SGP4

EPOCH          = 2026-03-12T14:00:01.999872
MEAN_MOTION    = 15.37793452
ECCENTRICITY   = .00016889
INCLINATION    = 97.2850
RA_OF_ASC_NODE = 126.1938
ARG_OF_PERICENTER = 93.8214
MEAN_ANOMALY   = 210.1456

EPHEMERIS_TYPE = 0
CLASSIFICATION_TYPE = U
NORAD_CAT_ID   = 67737
ELEMENT_SET_NO = 999
REV_AT_EPOCH   = 578
BSTAR          = -.52313363E-1
MEAN_MOTION_DOT = -.1753705E-1
MEAN_MOTION_DDOT = 0

CCSDS_OMM_VERS = 2.0
CREATION_DATE  = 
ORIGINATOR     = 

OBJECT_NAME    = STARLINK-36327
OBJECT_ID      = 2026-026T
CENTER_NAME    = EARTH
REF_FRAME      = TEME
TIME_SYSTEM    = UTC
MEAN_ELEMENT_THEORY = SGP/SGP4

EPOCH          = 2026-03-12T14:00:01.999872
MEAN_MOTION    = 15.37803320
ECCENTRICITY   = .00014296
INCLINATION    = 97.3008
RA_OF_ASC_NODE = 126.1944
ARG_OF_PERICENTER = 111.6326
MEAN_ANOMALY   = 207.5415

EPHEMERIS_TYPE = 0
CLASSIFICATION_TYPE = U
NORAD_CAT_ID   = 67738
ELEMENT_SET_NO = 999
REV_AT_EPOCH   = 578
BSTAR          = -.57547706E-1
MEAN_MOTION_DOT = -.1911569E-1
MEAN_MOTION_DDOT = 0

CCSDS_OMM_VERS = 2.0
CREATION_DATE  = 
ORIGINATOR     = 

OBJECT_NAME    = STARLINK-36329
OBJECT_ID      = 2026-026U
CENTER_NAME    = EARTH
REF_FRAME      = TEME
TIME_SYSTEM    = UTC
MEAN_ELEMENT_THEORY = SGP/SGP4

EPOCH          = 2026-03-12T14:00:01.999872
MEAN_MOTION    = 15.38836761
ECCENTRICITY   = .00012717
INCLINATION    = 97.3005
RA_OF_ASC_NODE = 126.2311
ARG_OF_PERICENTER = 82.1701
MEAN_ANOMALY   = 322.6840

EPHEMERIS_TYPE = 0
CLASSIFICATION_TYPE = U
NORAD_CAT_ID   = 67739
ELEMENT_SET_NO = 999
REV_AT_EPOCH   = 578
BSTAR          = -.55388423E-1
MEAN_MOTION_DOT = -.1903917E-1
MEAN_MOTION_DDOT = 0

CCSDS_OMM_VERS = 2.0
CREATION_DATE  = 
ORIGINATOR     = 

OBJECT_NAME    = STARLINK-36737
OBJECT_ID      = 2026-026V
CENTER_NAME    = EARTH
REF_FRAME      = TEME
TIME_SYSTEM    = UTC
MEAN_ELEMENT_THEORY = SGP/SGP4

EPOCH          = 2026-03-12T14:00:01.999872
MEAN_MOTION    = 15.37953719
ECCENTRICITY   = .00014133
INCLINATION    = 97.3006
RA_OF_ASC_NODE = 126.2006
ARG_OF_PERICENTER = 106.7869
MEAN_ANOMALY   = 226.8024

EPHEMERIS_TYPE = 0
CLASSIFICATION_TYPE = U
NORAD_CAT_ID   = 67740
ELEMENT_SET_NO = 999
REV_AT_EPOCH   = 578
BSTAR          = -.57383839E-1
MEAN_MOTION_DOT = -.1915088E-1
MEAN_MOTION_DDOT = 0

CCSDS_OMM_VERS = 2.0
CREATION_DATE  = 
ORIGINATOR     = 

OBJECT_NAME    = STARLINK-36740
OBJECT_ID      = 2026-026W
CENTER_NAME    = EARTH
REF_FRAME      = TEME
TIME_SYSTEM    = UTC
MEAN_ELEMENT_THEORY = SGP/SGP4

EPOCH          = 2026-03-12T14:16:20.054784
MEAN_MOTION    = 15.46324206
ECCENTRICITY   = .0002445
INCLINATION    = 97.2857
RA_OF_ASC_NODE = 126.1973
ARG_OF_PERICENTER = 72.9516
MEAN_ANOMALY   = 287.2002

EPHEMERIS_TYPE = 0
CLASSIFICATION_TYPE = U
NORAD_CAT_ID   = 67741
ELEMENT_SET_NO = 999
REV_AT_EPOCH   = 457
BSTAR          = -.48925679E-2
MEAN_MOTION_DOT = -.234035E-2
MEAN_MOTION_DDOT = 0

CCSDS_OMM_VERS = 2.0
CREATION_DATE  = 
ORIGINATOR     = 

OBJECT_NAME    = STARLINK-36693
OBJECT_ID      = 2026-026X
CENTER_NAME    = EARTH
REF_FRAME      = TEME
TIME_SYSTEM    = UTC
MEAN_ELEMENT_THEORY = SGP/SGP4

EPOCH          = 2026-03-12T14:00:01.999872
MEAN_MOTION    = 15.44483748
ECCENTRICITY   = .00016574
INCLINATION    = 97.2857
RA_OF_ASC_NODE = 126.1837
ARG_OF_PERICENTER = 84.9298
MEAN_ANOMALY   = 202.8019

EPHEMERIS_TYPE = 0
CLASSIFICATION_TYPE = U
NORAD_CAT_ID   = 67742
ELEMENT_SET_NO = 999
REV_AT_EPOCH   = 591
BSTAR          = -.43307716E-1
MEAN_MOTION_DOT = -.1808577E-1
MEAN_MOTION_DDOT = 0

CCSDS_OMM_VERS = 2.0
CREATION_DATE  = 
ORIGINATOR     = 

OBJECT_NAME    = STARLINK-36717
OBJECT_ID      = 2026-026Y
CENTER_NAME    = EARTH
REF_FRAME      = TEME
TIME_SYSTEM    = UTC
MEAN_ELEMENT_THEORY = SGP/SGP4

EPOCH          = 2026-03-12T14:00:01.999872
MEAN_MOTION    = 15.40215549
ECCENTRICITY   = .0001594
INCLINATION    = 97.2858
RA_OF_ASC_NODE = 126.2080
ARG_OF_PERICENTER = 103.3877
MEAN_ANOMALY   = 232.1893

EPHEMERIS_TYPE = 0
CLASSIFICATION_TYPE = U
NORAD_CAT_ID   = 67743
ELEMENT_SET_NO = 999
REV_AT_EPOCH   = 591
BSTAR          = -.49495514E-1
MEAN_MOTION_DOT = -.1792485E-1
MEAN_MOTION_DDOT = 0

CCSDS_OMM_VERS = 2.0
CREATION_DATE  = 
ORIGINATOR     = 

OBJECT_NAME    = STARLINK-36692
OBJECT_ID      = 2026-026Z
CENTER_NAME    = EARTH
REF_FRAME      = TEME
TIME_SYSTEM    = UTC
MEAN_ELEMENT_THEORY = SGP/SGP4

EPOCH          = 2026-03-12T14:00:01.999872
MEAN_MOTION    = 15.42220686
ECCENTRICITY   = .00018514
INCLINATION    = 97.2848
RA_OF_ASC_NODE = 126.1927
ARG_OF_PERICENTER = 95.3566
MEAN_ANOMALY   = 212.8768

EPHEMERIS_TYPE = 0
CLASSIFICATION_TYPE = U
NORAD_CAT_ID   = 67744
ELEMENT_SET_NO = 999
REV_AT_EPOCH   = 578
BSTAR          = -.46651584E-1
MEAN_MOTION_DOT = -.1805095E-1
MEAN_MOTION_DDOT = 0

